[{"OBJECT_NAME":"STARLINK-3502","OBJECT_ID":"2022-016AJ","EPOCH":"2026-03-09T21:58:00.909984","MEAN_MOTION":15.08837161,"ECCENTRICITY":0.0001068,"INCLINATION":53.2183,"RA_OF_ASC_NODE":308.1202,"ARG_OF_PERICENTER":88.3011,"MEAN_ANOMALY":271.8104,"EPHEMERIS_TYPE":0,"CLASSIFICATION_TYPE":"U","NORAD_CAT_ID":51746,"ELEMENT_SET_NO":999,"REV_AT_EPOCH":22373,"BSTAR":4.4735373e-5,"MEAN_MOTION_DOT":4.24e-6,"MEAN_MOTION_DDOT":0},{"OBJECT_NAME":"LEMUR-2-KREMPEL-BRO2","OBJECT_ID":"2025-061C","EPOCH":"2026-03-09T20:43:52.091904","MEAN_MOTION":15.13192951,"ECCENTRICITY":0.00179248,"INCLINATION":97.5616,"RA_OF_ASC_NODE":45.5365,"ARG_OF_PERICENTER":236.8576,"MEAN_ANOMALY":123.0936,"EPHEMERIS_TYPE":0,"CLASSIFICATION_TYPE":"U","NORAD_CAT_ID":63353,"ELEMENT_SET_NO":999,"REV_AT_EPOCH":5258,"BSTAR":0.00044346981,"MEAN_MOTION_DOT":7.837e-5,"MEAN_MOTION_DDOT":0}]
